TITAN 4B R/B            
1 26474U 00047B   25323.80393228  .00003497  00000+0  22762-3 0  9998
2 26474  67.9904 349.2601 0040937 171.5510 188.6338 15.08550205376338
ENVISAT                 
1 27386U 02009A   25323.88202031  .00000158  00000+0  65135-4 0  9993
2 27386  98.3562 275.2062 0001244  81.7778 298.1911 14.38987228243387
IDEFIX & ARIANE 42P R/B 
1 27422U 02021B   25323.78793902  .00000364  00000+0  15519-3 0  9998
2 27422  98.5752 258.7809 0012269 146.3540 213.8424 14.30926441228300
AQUA                    
1 27424U 02022A   25323.88829818  .00001290  00000+0  26875-3 0  9994
2 27424  98.4003 284.4014 0000627  68.8262 315.2900 14.61731276252697
CZ-4B R/B               
1 27432U 02024C   25323.60440441  .00000074  00000+0  61198-4 0  9993
2 27432  98.9035  12.4530 0049691 336.7221 177.5452 14.14521137213671
MIDORI II (ADEOS-II)    
1 27597U 02056A   25323.82239282  .00000340  00000+0  15169-3 0  9995
2 27597  98.7599 276.6628 0001021  25.0133 335.1097 14.29183459194608
H-2A R/B                
1 27601U 02056E   25323.85110176  .00000319  00000+0  12604-3 0  9991
2 27601  98.3029 283.5239 0071193 128.2928 253.2605 14.33651790198374
CZ-4B R/B               
1 28059U 03049C   25323.48756680  .00000505  00000+0  12764-3 0  9991
2 28059  98.6769 309.1753 0047673 206.8399 153.0329 14.54879263170575
CZ-2C R/B               
1 28222U 04012C   25323.75792818  .00033592  00000+0  52571-3 0  9999
2 28222  97.7462  14.5160 0018375 358.7977   1.3228 15.53492510187153
SL-16 R/B               
1 28353U 04021B   25323.78109720  .00000304  00000+0  18304-3 0  9992
2 28353  70.9996 103.1421 0006324 224.1291 135.9328 14.14578338107295
CZ-4B R/B               
1 28415U 04035C   25323.82403031  .00008010  00000+0  30128-3 0  9993
2 28415  97.3637 354.4798 0033695   1.2363 358.8953 15.26866464163131
CZ-2C R/B               
1 28480U 04046B   25323.74902481  .00000195  00000+0  87197-4 0  9996
2 28480  98.1967 240.5587 0140568 119.7382 241.7871 14.26926046 92821
