CCSDS_OMM_VERS = 2.0
CREATION_DATE  = 
ORIGINATOR     = 

OBJECT_NAME    = TITAN 4B R/B
OBJECT_ID      = 2000-047B
CENTER_NAME    = EARTH
REF_FRAME      = TEME
TIME_SYSTEM    = UTC
MEAN_ELEMENT_THEORY = SGP/SGP4

EPOCH          = 2025-11-19T19:17:39.748992
MEAN_MOTION    = 15.08550205
ECCENTRICITY   = .0040937
INCLINATION    = 67.9904
RA_OF_ASC_NODE = 349.2601
ARG_OF_PERICENTER = 171.5510
MEAN_ANOMALY   = 188.6338

EPHEMERIS_TYPE = 0
CLASSIFICATION_TYPE = U
NORAD_CAT_ID   = 26474
ELEMENT_SET_NO = 999
REV_AT_EPOCH   = 37633
BSTAR          = .22762E-3
MEAN_MOTION_DOT = .3497E-4
MEAN_MOTION_DDOT = 0

CCSDS_OMM_VERS = 2.0
CREATION_DATE  = 
ORIGINATOR     = 

OBJECT_NAME    = ENVISAT
OBJECT_ID      = 2002-009A
CENTER_NAME    = EARTH
REF_FRAME      = TEME
TIME_SYSTEM    = UTC
MEAN_ELEMENT_THEORY = SGP/SGP4

EPOCH          = 2025-11-19T21:10:06.554784
MEAN_MOTION    = 14.38987228
ECCENTRICITY   = .0001244
INCLINATION    = 98.3562
RA_OF_ASC_NODE = 275.2062
ARG_OF_PERICENTER = 81.7778
MEAN_ANOMALY   = 298.1911

EPHEMERIS_TYPE = 0
CLASSIFICATION_TYPE = U
NORAD_CAT_ID   = 27386
ELEMENT_SET_NO = 999
REV_AT_EPOCH   = 24338
BSTAR          = .65135E-4
MEAN_MOTION_DOT = .158E-5
MEAN_MOTION_DDOT = 0

CCSDS_OMM_VERS = 2.0
CREATION_DATE  = 
ORIGINATOR     = 

OBJECT_NAME    = IDEFIX & ARIANE 42P R/B
OBJECT_ID      = 2002-021B
CENTER_NAME    = EARTH
REF_FRAME      = TEME
TIME_SYSTEM    = UTC
MEAN_ELEMENT_THEORY = SGP/SGP4

EPOCH          = 2025-11-19T18:54:37.931328
MEAN_MOTION    = 14.30926441
ECCENTRICITY   = .0012269
INCLINATION    = 98.5752
RA_OF_ASC_NODE = 258.7809
ARG_OF_PERICENTER = 146.3540
MEAN_ANOMALY   = 213.8424

EPHEMERIS_TYPE = 0
CLASSIFICATION_TYPE = U
NORAD_CAT_ID   = 27422
ELEMENT_SET_NO = 999
REV_AT_EPOCH   = 22830
BSTAR          = .15519E-3
MEAN_MOTION_DOT = .364E-5
MEAN_MOTION_DDOT = 0

CCSDS_OMM_VERS = 2.0
CREATION_DATE  = 
ORIGINATOR     = 

OBJECT_NAME    = AQUA
OBJECT_ID      = 2002-022A
CENTER_NAME    = EARTH
REF_FRAME      = TEME
TIME_SYSTEM    = UTC
MEAN_ELEMENT_THEORY = SGP/SGP4

EPOCH          = 2025-11-19T21:19:08.962752
MEAN_MOTION    = 14.61731276
ECCENTRICITY   = .0000627
INCLINATION    = 98.4003
RA_OF_ASC_NODE = 284.4014
ARG_OF_PERICENTER = 68.8262
MEAN_ANOMALY   = 315.2900

EPHEMERIS_TYPE = 0
CLASSIFICATION_TYPE = U
NORAD_CAT_ID   = 27424
ELEMENT_SET_NO = 999
REV_AT_EPOCH   = 25269
BSTAR          = .26875E-3
MEAN_MOTION_DOT = .129E-4
MEAN_MOTION_DDOT = 0

CCSDS_OMM_VERS = 2.0
CREATION_DATE  = 
ORIGINATOR     = 

OBJECT_NAME    = CZ-4B R/B
OBJECT_ID      = 2002-024C
CENTER_NAME    = EARTH
REF_FRAME      = TEME
TIME_SYSTEM    = UTC
MEAN_ELEMENT_THEORY = SGP/SGP4

EPOCH          = 2025-11-19T14:30:20.541024
MEAN_MOTION    = 14.14521137
ECCENTRICITY   = .0049691
INCLINATION    = 98.9035
RA_OF_ASC_NODE = 12.4530
ARG_OF_PERICENTER = 336.7221
MEAN_ANOMALY   = 177.5452

EPHEMERIS_TYPE = 0
CLASSIFICATION_TYPE = U
NORAD_CAT_ID   = 27432
ELEMENT_SET_NO = 999
REV_AT_EPOCH   = 21367
BSTAR          = .61198E-4
MEAN_MOTION_DOT = .74E-6
MEAN_MOTION_DDOT = 0

CCSDS_OMM_VERS = 2.0
CREATION_DATE  = 
ORIGINATOR     = 

OBJECT_NAME    = MIDORI II (ADEOS-II)
OBJECT_ID      = 2002-056A
CENTER_NAME    = EARTH
REF_FRAME      = TEME
TIME_SYSTEM    = UTC
MEAN_ELEMENT_THEORY = SGP/SGP4

EPOCH          = 2025-11-19T19:44:14.739648
MEAN_MOTION    = 14.29183459
ECCENTRICITY   = .0001021
INCLINATION    = 98.7599
RA_OF_ASC_NODE = 276.6628
ARG_OF_PERICENTER = 25.0133
MEAN_ANOMALY   = 335.1097

EPHEMERIS_TYPE = 0
CLASSIFICATION_TYPE = U
NORAD_CAT_ID   = 27597
ELEMENT_SET_NO = 999
REV_AT_EPOCH   = 19460
BSTAR          = .15169E-3
MEAN_MOTION_DOT = .34E-5
MEAN_MOTION_DDOT = 0

CCSDS_OMM_VERS = 2.0
CREATION_DATE  = 
ORIGINATOR     = 

OBJECT_NAME    = H-2A R/B
OBJECT_ID      = 2002-056E
CENTER_NAME    = EARTH
REF_FRAME      = TEME
TIME_SYSTEM    = UTC
MEAN_ELEMENT_THEORY = SGP/SGP4

EPOCH          = 2025-11-19T20:25:35.192064
MEAN_MOTION    = 14.33651790
ECCENTRICITY   = .0071193
INCLINATION    = 98.3029
RA_OF_ASC_NODE = 283.5239
ARG_OF_PERICENTER = 128.2928
MEAN_ANOMALY   = 253.2605

EPHEMERIS_TYPE = 0
CLASSIFICATION_TYPE = U
NORAD_CAT_ID   = 27601
ELEMENT_SET_NO = 999
REV_AT_EPOCH   = 19837
BSTAR          = .12604E-3
MEAN_MOTION_DOT = .319E-5
MEAN_MOTION_DDOT = 0

CCSDS_OMM_VERS = 2.0
CREATION_DATE  = 
ORIGINATOR     = 

OBJECT_NAME    = CZ-4B R/B
OBJECT_ID      = 2003-049C
CENTER_NAME    = EARTH
REF_FRAME      = TEME
TIME_SYSTEM    = UTC
MEAN_ELEMENT_THEORY = SGP/SGP4

EPOCH          = 2025-11-19T11:42:05.771520
MEAN_MOTION    = 14.54879263
ECCENTRICITY   = .00476732
INCLINATION    = 98.6769
RA_OF_ASC_NODE = 309.1753
ARG_OF_PERICENTER = 206.8399
MEAN_ANOMALY   = 153.0329

EPHEMERIS_TYPE = 0
CLASSIFICATION_TYPE = U
NORAD_CAT_ID   = 28059
ELEMENT_SET_NO = 999
REV_AT_EPOCH   = 17057
BSTAR          = .12763744E-3
MEAN_MOTION_DOT = .505E-5
MEAN_MOTION_DDOT = 0

CCSDS_OMM_VERS = 2.0
CREATION_DATE  = 
ORIGINATOR     = 

OBJECT_NAME    = CZ-2C R/B
OBJECT_ID      = 2004-012C
CENTER_NAME    = EARTH
REF_FRAME      = TEME
TIME_SYSTEM    = UTC
MEAN_ELEMENT_THEORY = SGP/SGP4

EPOCH          = 2025-11-19T18:11:24.994752
MEAN_MOTION    = 15.53492510
ECCENTRICITY   = .0018375
INCLINATION    = 97.7462
RA_OF_ASC_NODE = 14.5160
ARG_OF_PERICENTER = 358.7977
MEAN_ANOMALY   = 1.3228

EPHEMERIS_TYPE = 0
CLASSIFICATION_TYPE = U
NORAD_CAT_ID   = 28222
ELEMENT_SET_NO = 999
REV_AT_EPOCH   = 18715
BSTAR          = .52571E-3
MEAN_MOTION_DOT = .33592E-3
MEAN_MOTION_DDOT = 0

CCSDS_OMM_VERS = 2.0
CREATION_DATE  = 
ORIGINATOR     = 

OBJECT_NAME    = SL-16 R/B
OBJECT_ID      = 2004-021B
CENTER_NAME    = EARTH
REF_FRAME      = TEME
TIME_SYSTEM    = UTC
MEAN_ELEMENT_THEORY = SGP/SGP4

EPOCH          = 2025-11-19T18:44:46.798080
MEAN_MOTION    = 14.14578338
ECCENTRICITY   = .0006324
INCLINATION    = 70.9996
RA_OF_ASC_NODE = 103.1421
ARG_OF_PERICENTER = 224.1291
MEAN_ANOMALY   = 135.9328

EPHEMERIS_TYPE = 0
CLASSIFICATION_TYPE = U
NORAD_CAT_ID   = 28353
ELEMENT_SET_NO = 999
REV_AT_EPOCH   = 10729
BSTAR          = .18304E-3
MEAN_MOTION_DOT = .304E-5
MEAN_MOTION_DDOT = 0

CCSDS_OMM_VERS = 2.0
CREATION_DATE  = 
ORIGINATOR     = 

OBJECT_NAME    = CZ-4B R/B
OBJECT_ID      = 2004-035C
CENTER_NAME    = EARTH
REF_FRAME      = TEME
TIME_SYSTEM    = UTC
MEAN_ELEMENT_THEORY = SGP/SGP4

EPOCH          = 2025-11-19T19:46:36.218784
MEAN_MOTION    = 15.26866464
ECCENTRICITY   = .0033695
INCLINATION    = 97.3637
RA_OF_ASC_NODE = 354.4798
ARG_OF_PERICENTER = 1.2363
MEAN_ANOMALY   = 358.8953

EPHEMERIS_TYPE = 0
CLASSIFICATION_TYPE = U
NORAD_CAT_ID   = 28415
ELEMENT_SET_NO = 999
REV_AT_EPOCH   = 16313
BSTAR          = .30128E-3
MEAN_MOTION_DOT = .801E-4
MEAN_MOTION_DDOT = 0

CCSDS_OMM_VERS = 2.0
CREATION_DATE  = 
ORIGINATOR     = 

OBJECT_NAME    = CZ-2C R/B
OBJECT_ID      = 2004-046B
CENTER_NAME    = EARTH
REF_FRAME      = TEME
TIME_SYSTEM    = UTC
MEAN_ELEMENT_THEORY = SGP/SGP4

EPOCH          = 2025-11-19T17:58:35.743584
MEAN_MOTION    = 14.26926046
ECCENTRICITY   = .0140568
INCLINATION    = 98.1967
RA_OF_ASC_NODE = 240.5587
ARG_OF_PERICENTER = 119.7382
MEAN_ANOMALY   = 241.7871

EPHEMERIS_TYPE = 0
CLASSIFICATION_TYPE = U
NORAD_CAT_ID   = 28480
ELEMENT_SET_NO = 999
REV_AT_EPOCH   = 9282
BSTAR          = .87197E-4
MEAN_MOTION_DOT = .195E-5
MEAN_MOTION_DDOT = 0

